CYGFM01                 
1 41887U 16078D   21309.91952220  .00001569  00000-0  83415-4 0  9991
2 41887  34.9519 154.6192 0016939 251.7178 108.1690 15.15049756270803
CYGFM08                 
1 41888U 16078E   21309.83724091  .00001614  00000-0  84788-4 0  9991
2 41888  34.9490 148.7736 0016159 260.6850  99.2035 15.15472449270914
CYGFM06                 
1 41889U 16078F   21309.85503161  .00001677  00000-0  87377-4 0  9993
2 41889  34.9570 144.2856 0014603 260.3979  99.5083 15.15767546270897
CYGFM07                 
1 41890U 16078G   21309.89989655  .00001608  00000-0  83857-4 0  9998
2 41890  34.9508 142.8708 0014375 264.6173  95.2899 15.15762191270887
CYGFM03                 
1 41891U 16078H   21309.89771567  .00001617  00000-0  84316-4 0  9991
2 41891  34.9540 143.2896 0013881 262.9373  96.9760 15.15758116270877
ECHOSTAR 19             
1 41893U 16079A   21309.86577773 -.00000131  00000-0  00000+0 0  9998
2 41893   0.0068 222.2064 0001144 359.1192  38.5775  1.00269390 17844
ARASE (ERG)             
1 41896U 16080A   21309.18795410 -.00000320  00000-0  18144-3 0  9990
2 41896  31.8016 313.4655 7008629 105.0823 336.4499  2.53960358 45173
TANSAT                  
1 41898U 16081A   21310.14560533  .00000475  00000-0  11601-3 0  9998
2 41898  98.3424 256.4663 0022650 109.4480 250.9164 14.56941827259184
YIJIAN                  
1 41899U 16081B   21310.14857845  .00000664  00000-0  15896-3 0  9994
2 41899  98.3348 255.1279 0023462 110.5243 249.8479 14.56602844259135
SPARK 1                 
1 41900U 16081C   21310.12076938  .00000558  00000-0  13784-3 0  9997
2 41900  98.3358 253.3524 0026518 113.0428 247.3555 14.55641262258964
SPARK 2                 
1 41901U 16081D   21310.18441301  .00000535  00000-0  13352-3 0  9990
2 41901  98.3306 251.6396 0028215 114.0094 246.4090 14.55304941258911
JCSAT-15                
1 41903U 16082A   21309.98820811 -.00000344  00000-0  00000+0 0  9997
2 41903   0.0142 277.2908 0001193 317.6687 276.3194  1.00276371 17897
STAR ONE D1             
1 41904U 16082B   21309.98313451 -.00000204  00000-0  00000+0 0  9990
2 41904   0.0167 116.6136 0001674  91.2477 107.5118  1.00273045 17896
SUPERVIEW-1 01          
1 41907U 16083A   21310.09636785  .00004338  00000-0  22989-3 0  9991
2 41907  97.4983  34.7806 0013025 281.1543 197.6184 15.15850685268495
SUPERVIEW-1 02          
1 41908U 16083B   21310.12258542  .00004850  00000-0  25688-3 0  9995
2 41908  97.4002  19.4917 0012072 274.1925 108.9232 15.15811631268507
TJS-2                   
1 41911U 17001A   21309.91785562  .00000001  00000-0  00000-0 0  9994
2 41911   0.2019 287.4956 0005042 264.6183 250.1791  1.00270615 17849
XINGYUN SHIYAN-1        
1 41913U 17002A   21310.17777891  .00007777  00000-0  43801-3 0  9999
2 41913  97.3319   1.0402 0011088 326.5770 118.6970 15.13434512266114
JILIN-1-03              
1 41914U 17002B   21310.20876225  .00002008  00000-0  12549-3 0  9992
2 41914  97.3254 356.4422 0011072 344.7232 101.4739 15.10498636265868
KAIDUN 1                
1 41915U 17002C   21310.21091126  .00004184  00000-0  24374-3 0  9999
2 41915  97.3298   1.0750 0009031 344.0242 104.2009 15.12494461266136
IRIDIUM 106             
1 41917U 17003A   21309.81368339  .00000129  00000-0  38880-4 0  9992
2 41917  86.3969  72.3924 0002272  88.9386 271.2070 14.34215499251781
IRIDIUM 103             
1 41918U 17003B   21309.80101039  .00000138  00000-0  42149-4 0  9997
2 41918  86.3970  72.3031 0002266 102.9262 257.2187 14.34218903251805
IRIDIUM 109             
1 41919U 17003C   21310.08642183  .00000134  00000-0  40747-4 0  9998
2 41919  86.3971  72.2153 0002175  97.0551 263.0892 14.34217037251833
IRIDIUM 102             
1 41920U 17003D   21309.84538340  .00000138  00000-0  42150-4 0  9995
2 41920  86.3969  72.2757 0001876 100.3477 259.7930 14.34220927251864
IRIDIUM 105             
1 41921U 17003E   21309.74636658  .00000097  00000-0  27535-4 0  9990
2 41921  86.4015  40.7230 0002622  90.6820 269.4676 14.34216102253707
IRIDIUM 104             
1 41922U 17003F   21309.85808068  .00000122  00000-0  36341-4 0  9993
2 41922  86.3972  72.2875 0002353  92.7777 267.3688 14.34215429251854
IRIDIUM 114             
1 41923U 17003G   21309.86443106  .00000136  00000-0  41539-4 0  9993
2 41923  86.3971  72.2733 0001943  86.6386 273.5032 14.34216383251839
IRIDIUM 108             
1 41924U 17003H   21309.82293566  .00000174  00000-0  55052-4 0  9990
2 41924  86.4008  40.6786 0002352  89.2651 270.8814 14.34214662253689
IRIDIUM 112             
1 41925U 17003J   21309.85174122  .00000139  00000-0  42497-4 0  9990
2 41925  86.3967  72.1998 0001721  91.1820 268.9573 14.34217173251854
IRIDIUM 111             
1 41926U 17003K   21309.83904791  .00000135  00000-0  41239-4 0  9991
2 41926  86.3968  72.2390 0002275 101.0186 259.1265 14.34220206251833
SBIRS GEO-4 (USA 273)   
1 41937U 17004A   21309.70985625  .00000134  00000-0  00000-0 0  9991
2 41937   2.7794 315.1304 0002366 259.0004 287.2002  1.00271982 17716
HISPASAT 36W-1          
1 41942U 17006A   21309.80620767 -.00000237  00000-0  00000-0 0  9998
2 41942   0.0039 306.9443 0001010 267.8396  84.7374  1.00270626 17348
TELKOM 3S               
1 41944U 17007A   21309.85652647 -.00000356  00000-0  00000-0 0  9990
2 41944   0.0130 234.4867 0002125 341.6685 255.5071  1.00273232 17255
INTELSAT 32E (IS-32E)   
1 41945U 17007B   21309.80472497 -.00000261  00000-0  00000-0 0  9994
2 41945   0.0134 279.1403 0000549 205.8627 166.7537  1.00269873 17343
CARTOSAT-2D             
1 41948U 17008A   21309.75387436  .00003347  00000-0  16174-3 0  9999
2 41948  97.4257   7.8632 0007510  41.3001 318.8744 15.19295581261831
INS-1A                  
1 41949U 17008B   21309.91635898  .00007915  00000-0  29970-3 0  9999
2 41949  97.2920   9.8485 0007390 317.4883  42.5783 15.27160739262645
FLOCK 3P-8              
1 41951U 17008D   21309.73725705  .00006555  00000-0  23937-3 0  9995
2 41951  97.3076  14.7544 0006162 309.7762  50.2934 15.28431741262850
INS-1B                  
1 41954U 17008G   21309.72332433  .00007950  00000-0  30121-3 0  9992
2 41954  97.2918   9.6754 0007349 320.3805  39.6897 15.27137826262561
FLOCK 3P-24             
1 41956U 17008J   21309.72881784  .00006089  00000-0  21010-3 0  9991
2 41956  97.3104  17.9664 0005787 286.7693  73.2913 15.30325121263078
FLOCK 3P-4              
1 41965U 17008T   21309.75157069  .00008368  00000-0  30002-3 0  9999
2 41965  97.3068  14.8522 0006220 307.7883  52.2793 15.28951279262780
FLOCK 3P-2              
1 41966U 17008U   21309.88671246  .00006627  00000-0  23846-3 0  9996
2 41966  97.3084  15.1501 0005842 303.7999  56.2684 15.28917151262721
FLOCK 3P-3              
1 41968U 17008W   21309.76764703  .00006175  00000-0  22171-3 0  9994
2 41968  97.3083  15.3716 0005968 303.3291  56.7378 15.29015977262813
FLOCK 3P-12             
1 41972U 17008AA  21309.93191535  .00007696  00000-0  27570-3 0  9992
2 41972  97.3086  15.2665 0005799 311.2074  48.8665 15.29008361262812
FLOCK 3P-11             
1 41975U 17008AD  21309.74882200  .00008564  00000-0  30695-3 0  9997
2 41975  97.3075  14.9774 0006036 308.1863  51.8833 15.28953501262552
FLOCK 3P-58             
1 41977U 17008AF  21309.74285811  .00007648  00000-0  27437-3 0  9996
2 41977  97.3087  15.0694 0005917 309.8437  50.2282 15.28964102262866
FLOCK 3P-57             
1 41978U 17008AG  21309.92520935  .00006961  00000-0  25007-3 0  9994
2 41978  97.3078  15.2294 0005881 306.9325  53.1376 15.28951330262730
FLOCK 3P-70             
1 41980U 17008AJ  21309.92925879  .00007103  00000-0  25525-3 0  9997
2 41980  97.3122  15.9122 0005977 311.8071  48.2658 15.28934288262730
FLOCK 3P-34             
1 41988U 17008AS  21309.72840951  .00007401  00000-0  26588-3 0  9991
2 41988  97.3100  15.2090 0005446 309.4002  50.6755 15.28929172262189
FLOCK 3P-33             
1 41990U 17008AU  21309.90036654  .00005508  00000-0  20540-3 0  9999
2 41990  97.3089  14.7731 0005603 312.7320  47.3447 15.27816665262170
LEMUR-2-JOBANPUTRA      
1 41991U 17008AV  21309.91742903  .00007048  00000-0  26699-3 0  9994
2 41991  97.2950  11.2542 0005727 324.5147  35.5711 15.27192856262020
LEMUR-2-SPIRE-MINIONS   
1 41992U 17008AW  21310.11919764  .00009142  00000-0  32237-3 0  9992
2 41992  97.3008  14.4805 0005154 314.0056  46.0759 15.29472249262220
LEMUR-2-SATCHMO         
1 41993U 17008AX  21309.90282553  .00006808  00000-0  25552-3 0  9995
2 41993  97.2950  11.7382 0005694 322.9169  37.1676 15.27515716262053
LEMUR-2-SMITA-SHARAD    
1 41994U 17008AY  21309.97076103  .00008890  00000-0  31384-3 0  9998
2 41994  97.3003  14.1397 0005213 312.4236  47.6563 15.29444031262192
LEMUR-2-RDEATON         
1 41995U 17008AZ  21309.93008872  .00007465  00000-0  28019-3 0  9991
2 41995  97.2964  11.9485 0007079 336.4512  23.6402 15.27473854262746
LEMUR-2-TACHIKOMA       
1 41996U 17008BA  21309.93426111  .00009437  00000-0  33550-3 0  9999
2 41996  97.3042  14.3352 0006443 331.4269  28.6617 15.29187873262077
LEMUR-2-NOGUECORREIG    
1 41997U 17008BB  21309.89914014  .00009161  00000-0  32214-3 0  9999
2 41997  97.3022  14.6685 0006410 329.0422  31.0440 15.29556405262192
LEMUR-2-MIA-GRACE       
1 41998U 17008BC  21310.10388637  .00006508  00000-0  24551-3 0  9999
2 41998  97.2954  11.8050 0006944 337.0648  23.0281 15.27353314261995
BGUSAT                  
1 41999U 17008BD  21309.75630236  .00013200  00000-0  43270-3 0  9990
2 41999  97.3112  17.4820 0005682 319.9943  40.0879 15.31742066262326
DIDO-2                  
1 42000U 17008BE  21309.89963877  .00004252  00000-0  16827-3 0  9994
2 42000  97.2912   9.8862 0007326 343.6097  16.4903 15.25957025261958
FLOCK 3P-49             
1 42001U 17008BF  21309.69779445  .00007913  00000-0  28244-3 0  9992
2 42001  97.3085  15.3179 0006105 329.5768  30.5117 15.29118167262715
